#dP2021  4 12  0  0  0.00000000      96 __u+U ITR00 EXT  IAC
## 2153  86400.00000000   900.00000000 59316 0.0000000000000
+  116   C06C07C08C09C10C11C12C13C14C16C19C20C21C22C23C24C25
+        C26C27C28C29C30C32C33C34C35C36C37C38C39C40C41C42C43
+        C44C45C46E01E02E03E04E05E07E08E09E11E12E13E14E15E18
+        E19E21E24E25E26E27E30E31E33E36G01G02G03G04G05G06G07
+        G08G09G10G12G13G14G15G16G17G18G19G20G21G22G23G24G25
+        G26G27G28G29G30G31G32J01J02J03R01R02R03R04R05R07R08
+        R09R11R12R13R14R15R16R17R18R19R20R21R22R24  0  0  0
++        10  9  8  9 10  8  8 10  9  9  9  8  8  8  6  8 10
++         9  8  8 11  8  8  8  9  9 10  8  9 10  9  9  9  7
++        10 10  9  8  7  8  8  7  8  7  6  7  8  9  8  8  8
++         7  7  7  7  8  7  6  7  8  8  8  8  7  8  8  8  7
++         7  7  7  7  8  7  7  7  7  8  7  7  8  8  7  7  7
++         8  7  7  8  8  6  7 11  8  8  9  8  8  8  8  7  9
++         8  8  8  7  7  9 10  7  8  7  7  7  9  6  0  0  0
%c M  cc GPS ccc cccc cccc cccc cccc ccccc ccccc ccccc ccccc
%c cc cc ccc ccc cccc cccc cccc cccc ccccc ccccc ccccc ccccc
%f  0.0000000  0.000000000  0.00000000000  0.000000000000000
%f  0.0000000  0.000000000  0.00000000000  0.000000000000000
%i    0    0    0    0      0      0      0      0         0
%i    0    0    0    0      0      0      0      0         0
/* IAC                                ULTRA-RAPID PREDICTION
/* S/V CLOCKS ARE ALIGNED TO GNSS TIME                      
/* G:C1WC2W R:C1PC2P E:C1XC5X C:C2IC6I J:C1CC2S             
/* PCV:IGS14_2148 OL/AL:FES2004  NONE     YN ORB:CoN CLK:CoN
*  2021 04 12 14 45  0.00000000
PC06 -20623.021056  37076.354772   1095.315992    270.949805
PC07  -9768.992054  27430.930615 -30089.649207   -113.111247
PC08 -21670.134129  19289.031287  30556.360103   -892.760207
PC09 -10980.224944  38361.920420 -13989.968040    600.899085
PC10   4173.657280  35071.886059 -22501.551502    -57.633110
PC11  16906.216881   1393.292758  22224.750916   -813.622938
PC12   4210.172098  17991.603062  20940.591913    930.167838
PC13  -6201.700743  22890.577577  34934.498008    218.622449
PC14  18786.774808  12225.774795 -16555.196616    449.834895
PC16 -17557.313544  38342.574977  -2906.078901   -780.053791
PC19 -17601.652086  -1952.116773  21603.175463    796.042086
PC20 -17355.402744 -19311.795805  10291.564714   -952.927022
PC21   6609.371082  25961.545298   7794.763000   -937.882263
PC22  -7686.375404  17042.261920  20717.430981   -960.101482
PC23  17262.856550 -11838.668627  18455.689672   -887.110845
PC24  21467.350811  11521.231086 -13640.460632   -811.628980
PC25  27586.572270  -1366.185512   4052.670342   -933.660013
PC26   4355.590565  16185.388838 -22325.053518    922.017701
PC27   3719.939731 -23236.447846 -15001.531195    514.210346
PC28  17042.253833 -22025.357474   1799.897112    -87.151902
PC29 -19997.552995   8646.209314 -17450.207553    377.821601
PC30 -11784.534366 -10866.037153 -22846.584471    459.695472
PC32  -6853.625658 -25923.159522  -7731.208523   -938.242123
PC33  17628.381467   1908.860374 -21531.234004   -941.931749
PC34  12243.431152  10285.348877  22862.185047   -697.565524
PC35 -16447.161519  22471.876315  -2115.396899   -330.482230
PC36 -27653.031928    474.783851  -3700.557104   -732.224753
PC37  -2911.288379 -16298.346069  22475.578815   -894.783875
PC38 -17492.073599  22490.704504  31072.997222    141.800095
PC39 -13213.892930  39772.928340  -5266.963092     30.224501
PC40   1313.326920  33248.182089 -25785.435745    150.399200
PC41   7817.971729 -16865.925144 -20756.980122   -943.032302
PC42  17116.953954  19821.474759  -9563.950657   -925.628767
PC43  20026.896875  -7994.960517  17690.477420   -682.272320
PC44  -3093.412667  23500.860307  14749.236847    133.982827
PC45 -17125.153562  11825.112614 -18581.835554    411.880283
PC46 -22140.246192 -10949.298934  12956.705389    319.544465
PE01  26661.283712   9540.495791   8629.493664  -1085.457758
PE02 -26648.551640  -9433.371912  -8754.231501    211.669528
PE03 -16807.342691  -4811.419879  23890.773088   -419.324863
PE04  14253.849001 -17029.490056 -19560.409613   -748.641979
PE05  -9525.242235 -24137.453664  14250.335125   -289.418984
PE07  -3248.598130  29194.492474   3617.106814   -524.688007
PE08 -13942.508420  17387.470172  19479.623929   6018.727236
PE09   2952.903079 -29257.151156  -3449.220009   5703.299855
PE11  10234.041078 -20068.748647 -19194.626811   6102.975699
PE12  25145.679999 -15468.358260  -1944.967897   5263.310531
PE13 -10652.651610  20099.092844  18952.549770    414.915869
PE14 -20703.893262    483.974451 -23967.319367  -1394.451146
PE15 -25096.520908  15581.985638   1987.881675    819.828961
PE18  16361.128574 -12764.849406  14356.593280  -1525.500924
PE19  16308.712954   7395.798466 -23559.890868    250.452048
PE21  19954.669863  19684.369255  -9527.373724   -658.925263
PE24   -483.041400 -18590.898234  23006.206446   -843.291381
PE25 -19815.859594 -19732.224692   9695.573529   -530.829533
PE26  10827.889763  12495.647222  24556.324846   1932.950533
PE27   1410.847080  18845.681185 -22786.140035     -9.670820
PE30 -18578.020163   6205.127776 -22200.616755   3030.835298
PE31  17854.381778  -6932.520465  22571.641777   -480.093320
PE33  24739.257060  -1882.458620  16137.972401   -467.474863
PE36 -10065.788704 -12763.602587 -24733.610052   -192.727012
PG01   -787.174326 -15079.545952 -22068.697154    718.094161
PG02 -20637.576552  14656.908935   8767.007891   -595.001894
PG03  -9631.266976 -21142.225282 -13052.142090   -134.785489
PG04    279.313803 -25062.678775   8713.030020   -191.431162
PG05  -6333.204508  14370.174823  21249.634200    -38.883411
PG06 -25763.022276   5754.977676  -3161.136021      6.723986
PG07 -15719.444421  -9799.850965  19551.139728    119.815275
PG08   5361.506444 -25840.961665    -56.232467    -17.236310
PG09  -8315.852593 -18701.140871  16857.406761   -338.372752
PG10  22011.263203   9166.607130 -11860.589729   -100.507306
PG12   5517.207925  21191.185650 -15391.636086    -26.824336
PG13 -13237.626549  21790.018924   7067.936552    119.058083
PG14 -21611.868475 -10482.360113 -11373.263675     96.541186
PG15  -2248.799396  26264.422218   -808.959488   -156.677239
PG16  10517.432015 -10443.247295  21784.084960   -308.572726
PG17 -14552.168559  -1835.186259 -21716.180333    425.203333
PG18  18643.817544   7205.164461  17514.123545    351.618447
PG19 -16453.040330   7068.495170 -19864.674275    -13.905151
PG20  15640.821363  19339.760515   9633.064132    523.247924
PG21   7607.710370 -16783.556837 -18232.963949    110.438269
PG22  -1590.876620 -18611.512714 -18750.381016   -639.563149
PG23  20720.392823  16564.081238  -1760.792996    113.867143
PG24  -4303.440536  17319.909533 -19800.746609     -0.136118
PG25  16894.040739  20173.938632  -4834.441700    117.181614
PG26  17879.783555  -3315.884455  19389.150612     71.166020
PG27  12211.994629 -20613.720248  10876.132706   -111.411623
PG28 -20540.502403  -9329.136349 -13326.922484    587.856565
PG29   6577.359055  18657.504065  17654.719243   -328.727022
PG30 -24599.416385   -944.895244  10321.862933   -411.831564
PG31  25876.813560  -7030.933143   -388.087238   -111.169184
PG32  15560.487475   -656.430361 -21389.508389     22.081928
PJ01 -26101.596882  24177.021065  27615.775821   -364.847950
PJ02 -26745.734790  15627.540285 -24123.934976      5.329436
PJ03 -26603.265261  31904.894231  -2712.742454     -3.264212
PR01  11181.405699  -1117.808254 -22891.958326     77.786563
PR02   1962.390354 -20416.387883 -15079.827129    474.536724
PR03  -7337.880576 -24359.946602   1484.273191     34.096969
PR04 -12203.340428 -14585.800179  17029.522967     82.083192
PR05 -10327.136086   3324.001441  23101.914973     69.866105
PR07   7547.536814  24304.828827  -1996.275807    -42.544272
PR08  12268.855150  14573.566504 -16913.659937    -58.495218
PR09  -7838.359762   9393.235786 -22377.971636    -12.411908
PR11  23464.628023   8402.340083  -5396.936658      0.978241
PR12  22274.438955   -356.742613  12467.007477    220.278127
PR13   8322.710022  -8940.242912  22373.088049    -53.320395
PR14 -11176.725563 -12480.808249  19246.682443     63.062327
PR15 -23487.377686  -8621.195204   4980.317111    104.412202
PR16 -21672.216094   1533.515909 -13282.749373    -13.694450
PR17   2172.332316 -15221.553267 -20355.572197    415.567482
PR18 -11572.925864  -2792.518756 -22554.888068     72.949454
PR19 -19279.231132   9947.285144 -13421.318855   -139.492769
PR20 -16085.550056  18837.593398   6201.943288    -47.150830
PR21  -1211.143187  14473.770537  20963.041523   -201.224281
PR22  12162.110596   2020.535307  22297.497882   -107.427424
PR24  15324.178118 -19217.992034  -6815.515711     38.580145
EOF
